H1 CPF  1  DGF 2022 04 10 11  6001 larets     NONE      
H2   304206 5557    27944 2022 04 10 00 00 00 2022 04 17 00 00 00    30 1 1  0 0 0
H5  0.0650
H9
10 0 59682  25200.000000  0      -1481351.486       1654533.686       6685705.220
10 0 59682  25230.000000  0      -1527794.987       1867491.817       6618866.064
10 0 59682  25260.000000  0      -1571757.514       2078749.395       6545249.282
10 0 59682  25290.000000  0      -1613202.157       2288080.522       6464929.565
10 0 59682  25320.000000  0      -1652095.541       2495261.058       6377988.478
10 0 59682  25350.000000  0      -1688407.852       2700068.871       6284514.380
10 0 59682  25380.000000  0      -1722112.861       2902284.071       6184602.338
10 0 59682  25410.000000  0      -1753187.938       3101689.258       6078354.031
10 0 59682  25440.000000  0      -1781614.066       3298069.754       5965877.658
10 0 59682  25470.000000  0      -1807375.850       3491213.842       5847287.829
10 0 59682  25500.000000  0      -1830461.519       3680913.002       5722705.457
10 0 59682  25530.000000  0      -1850862.930       3866962.147       5592257.642
10 0 59682  25560.000000  0      -1868575.563       4049159.849       5456077.538
10 0 59682  25590.000000  0      -1883598.507       4227308.570       5314304.222
10 0 59682  25620.000000  0      -1895934.450       4401214.882       5167082.555
10 0 59682  25650.000000  0      -1905589.658       4570689.683       5014563.034
10 0 59682  25680.000000  0      -1912573.951       4735548.416       4856901.642
10 0 59682  25710.000000  0      -1916900.674       4895611.276       4694259.687
10 0 59682  25740.000000  0      -1918586.663       5050703.416       4526803.641
10 0 59682  25770.000000  0      -1917652.207       5200655.148       4354704.967
10 0 59682  25800.000000  0      -1914121.008       5345302.140       4178139.943
10 0 59682  25830.000000  0      -1908020.131       5484485.601       3997289.483
10 0 59682  25860.000000  0      -1899379.960       5618052.467       3812338.944
10 0 59682  25890.000000  0      -1888234.136       5745855.573       3623477.936
10 0 59682  25920.000000  0      -1874619.508       5867753.829       3430900.127
10 0 59682  25950.000000  0      -1858576.062       5983612.380       3234803.037
10 0 59682  25980.000000  0      -1840146.854       6093302.767       3035387.832
10 0 59682  26010.000000  0      -1819377.941       6196703.076       2832859.117
10 0 59682  26040.000000  0      -1796318.305       6293698.084       2627424.715
10 0 59682  26070.000000  0      -1771019.770       6384179.392       2419295.447
10 0 59682  26100.000000  0      -1743536.920       6468045.557       2208684.911
10 0 59682  26130.000000  0      -1713927.012       6545202.205       1995809.252
10 0 59682  26160.000000  0      -1682249.882       6615562.143       1780886.937
10 0 59682  26190.000000  0      -1648567.854       6679045.462       1564138.520
10 0 59682  26220.000000  0      -1612945.640       6735579.634       1345786.408
10 0 59682  26250.000000  0      -1575450.242       6785099.591       1126054.626
10 0 59682  26280.000000  0      -1536150.846       6827547.809        905168.579
10 0 59682  26310.000000  0      -1495118.720       6862874.369        683354.810
10 0 59682  26340.000000  0      -1452427.107       6891037.021        460840.763
10 0 59682  26370.000000  0      -1408151.112       6912001.235        237854.538
10 0 59682  26400.000000  0      -1362367.590       6925740.243         14624.648
10 0 59682  26430.000000  0      -1315155.031       6932235.074       -208620.228
10 0 59682  26460.000000  0      -1266593.440       6931474.574       -431651.491
10 0 59682  26490.000000  0      -1216764.219       6923455.417       -654240.868
10 0 59682  26520.000000  0      -1165750.041       6908182.102       -876160.659
10 0 59682  26550.000000  0      -1113634.737       6885666.945      -1097183.976
10 0 59682  26580.000000  0      -1060503.165       6855930.056      -1317084.984
10 0 59682  26610.000000  0      -1006441.093       6818999.314      -1535639.134
10 0 59682  26640.000000  0       -951535.074       6774910.331      -1752623.400
10 0 59682  26670.000000  0       -895872.317       6723706.404      -1967816.510
10 0 59682  26700.000000  0       -839540.571       6665438.464      -2180999.177
10 0 59682  26730.000000  0       -782627.992       6600165.012      -2391954.319
10 0 59682  26760.000000  0       -725223.024       6527952.046      -2600467.288
10 0 59682  26790.000000  0       -667414.276       6448872.988      -2806326.082
10 0 59682  26820.000000  0       -609290.392       6363008.597      -3009321.568
10 0 59682  26850.000000  0       -550939.933       6270446.872      -3209247.690
10 0 59682  26880.000000  0       -492451.253       6171282.954      -3405901.678
10 0 59682  26910.000000  0       -433912.373       6065619.012      -3599084.256
10 0 59682  26940.000000  0       -375410.867       5953564.128      -3788599.839
10 0 59682  26970.000000  0       -317033.738       5835234.169      -3974256.729
10 0 59682  27000.000000  0       -258867.302       5710751.655      -4155867.304
10 0 59682  27030.000000  0       -200997.071       5580245.620      -4333248.203
10 0 59682  27060.000000  0       -143507.639       5443851.463      -4506220.506
10 0 59682  27090.000000  0        -86482.568       5301710.803      -4674609.905
10 0 59682  27120.000000  0        -30004.277       5153971.315      -4838246.872
10 0 59682  27150.000000  0         25846.065       5000786.568      -4996966.827
10 0 59682  27180.000000  0         80988.651       4842315.858      -5150610.292
10 0 59682  27210.000000  0        135345.134       4678724.026      -5299023.045
10 0 59682  27240.000000  0        188838.733       4510181.282      -5442056.261
10 0 59682  27270.000000  0        241394.330       4336863.017      -5579566.658
10 0 59682  27300.000000  0        292938.566       4158949.609      -5711416.624
10 0 59682  27330.000000  0        343399.936       3976626.234      -5837474.345
10 0 59682  27360.000000  0        392708.875       3790082.658      -5957613.930
10 0 59682  27390.000000  0        440797.849       3599513.040      -6071715.517
10 0 59682  27420.000000  0        487601.437       3405115.723      -6179665.386
10 0 59682  27450.000000  0        533056.411       3207093.023      -6281356.056
10 0 59682  27480.000000  0        577101.813       3005651.019      -6376686.386
10 0 59682  27510.000000  0        619679.032       2800999.332      -6465561.659
10 0 59682  27540.000000  0        660731.874       2593350.913      -6547893.664
10 0 59682  27570.000000  0        700206.629       2382921.818      -6623600.772
10 0 59682  27600.000000  0        738052.136       2169930.990      -6692608.011
10 0 59682  27630.000000  0        774219.844       1954600.028      -6754847.130
10 0 59682  27660.000000  0        808663.866       1737152.960      -6810256.657
10 0 59682  27690.000000  0        841341.033       1517816.013      -6858781.950
10 0 59682  27720.000000  0        872210.944       1296817.378      -6900375.244
10 0 59682  27750.000000  0        901236.010       1074386.984      -6934995.686
10 0 59682  27780.000000  0        928381.499        850756.263      -6962609.375
10 0 59682  27810.000000  0        953615.573        626157.911      -6983189.386
10 0 59682  27840.000000  0        976909.327        400825.652      -6996715.797
10 0 59682  27870.000000  0        998236.812        174994.002      -7003175.696
10 0 59682  27900.000000  0       1017575.066        -51101.972      -7002563.193
10 0 59682  27930.000000  0       1034904.138       -277226.888      -6994879.417
10 0 59682  27960.000000  0       1050207.100       -503145.285      -6980132.513
10 0 59682  27990.000000  0       1063470.072       -728621.855      -6958337.635
10 0 59682  28020.000000  0       1074682.226       -953421.688      -6929516.925
10 0 59682  28050.000000  0       1083835.798      -1177310.504      -6893699.499
10 0 59682  28080.000000  0       1090926.092      -1400054.887      -6850921.409
10 0 59682  28110.000000  0       1095951.478      -1621422.520      -6801225.622
10 0 59682  28140.000000  0       1098913.388      -1841182.421      -6744661.974
10 0 59682  28170.000000  0       1099816.316      -2059105.174      -6681287.134
10 0 59682  28200.000000  0       1098667.803      -2274963.164      -6611164.549
10 0 59682  28230.000000  0       1095478.421      -2488530.814      -6534364.395
10 0 59682  28260.000000  0       1090261.758      -2699584.813      -6450963.513
10 0 59682  28290.000000  0       1083034.389      -2907904.354      -6361045.335
10 0 59682  28320.000000  0       1073815.852      -3113271.357      -6264699.818
10 0 59682  28350.000000  0       1062628.614      -3315470.699      -6162023.348
10 0 59682  28380.000000  0       1049498.039      -3514290.437      -6053118.661
10 0 59682  28410.000000  0       1034452.350      -3709522.025      -5938094.744
10 0 59682  28440.000000  0       1017522.590      -3900960.532      -5817066.735
10 0 59682  28470.000000  0        998742.574      -4088404.858      -5690155.819
10 0 59682  28500.000000  0        978148.845      -4271657.942      -5557489.117
10 0 59682  28530.000000  0        955780.617      -4450526.974      -5419199.572
10 0 59682  28560.000000  0        931679.724      -4624823.596      -5275425.827
10 0 59682  28590.000000  0        905890.557      -4794364.113      -5126312.092
10 0 59682  28620.000000  0        878460.001      -4958969.681      -4972008.017
10 0 59682  28650.000000  0        849437.370      -5118466.510      -4812668.548
10 0 59682  28680.000000  0        818874.337      -5272686.049      -4648453.781
10 0 59682  28710.000000  0        786824.858      -5421465.174      -4479528.808
10 0 59682  28740.000000  0        753345.103      -5564646.366      -4306063.562
10 0 59682  28770.000000  0        718493.369      -5702077.883      -4128232.654
99
